STARLINK-2740           
1 48690U 21044BE  22020.25001157 -.00014607  00000+0 -96341-3 0  9990
2 48690  53.0551  17.7475 0001373  71.6143 345.1887 15.06412619 37657
STARLINK-2750           
1 48691U 21044BF  22020.58334491 -.00023259  00000+0 -15472-2 0  9995
2 48691  53.0594  11.1961 0001522  56.3455 156.7098 15.06411296 37723
STARLINK-2752           
1 48692U 21044BG  22020.25001157 -.00018057  00000+0 -11960-2 0  9998
2 48692  53.0564  12.7494 0001602  76.5582 272.9812 15.06412951 37671
STARLINK-2618           
1 48693U 21044BH  22020.25001157 -.00051244  00000+0 -34428-2 0  9998
2 48693  53.0565  17.7476 0001716  67.4318 174.5402 15.06435210 37608
STARLINK-2748           
1 48694U 21044BJ  22020.58334491 -.00014970  00000+0 -98761-3 0  9991
2 48694  53.0547  21.2547 0001749  60.7910 357.1943 15.06421484 37571
STARLINK-2616           
1 48695U 21044BK  22020.58334491 -.00017214  00000+0 -11393-2 0  9991
2 48695  53.0546  21.2528 0001501  66.8143 256.3619 15.06407230 37642
STARLINK-2753           
1 48696U 21044BL  22020.44778206  .00000807  00000+0  73047-4 0  9997
2 48696  53.0554  26.8715 0001635  76.7664 283.3508 15.06398587 37491
STARLINK-2715           
1 48697U 21044BM  22020.41461046  .00003084  00000+0  22587-3 0  9998
2 48697  53.0569  27.0202 0001617  66.8504 293.2655 15.06399382 37481
ONEWEB-0211             
1 48767U 21045A   22020.58334491 -.00016602  00000+0 -44206-1 0  9990
2 48767  87.9029 219.1196 0001073  98.7599  14.7907 13.15560072 34045
ONEWEB-0223             
1 48768U 21045B   22020.58334491 -.00017807  00000+0 -47418-1 0  9997
2 48768  87.9045 219.0788 0000826  91.3947 282.1674 13.15561470 34046
ONEWEB-0230             
1 48769U 21045C   22020.58334491 -.00016106  00000+0 -42884-1 0  9991
2 48769  87.9072 219.0352 0001045  83.5841  59.9222 13.15563025 34287
ONEWEB-0237             
1 48770U 21045D   22020.58334491 -.00015443  00000+0 -41115-1 0  9992
2 48770  87.9064 218.9312 0000986  68.7933 124.8254 13.15562441 34013
ONEWEB-0235             
1 48771U 21045E   22020.58334491 -.00017250  00000+0 -45929-1 0  9998
2 48771  87.9091 218.9368 0000646  41.3638 282.2058 13.15565975 34002
ONEWEB-0242             
1 48772U 21045F   22020.58334491 -.00017627  00000+0 -46937-1 0  9997
2 48772  87.9040 219.0794 0000993  92.3809 261.1867 13.15562429 34053
ONEWEB-0241             
1 48773U 21045G   22020.58334491 -.00017686  00000+0 -47095-1 0  9999
2 48773  87.9025 219.0708 0001004 121.9552 291.6395 13.15561430 33964
ONEWEB-0243             
1 48774U 21045H   22020.58334491 -.00015779  00000+0 -42010-1 0  9993
2 48774  87.9092 218.9826 0001135  66.6502 196.8523 13.15565788 33984
ONEWEB-0222             
1 48775U 21045J   22020.58334491 -.00016916  00000+0 -45039-1 0  9992
2 48775  87.9087 219.0183 0001055  97.1057 216.4961 13.15567862 34028
ONEWEB-0244             
1 48776U 21045K   22020.58334491 -.00015943  00000+0 -42448-1 0  9993
2 48776  87.9019 219.0622 0001366  47.5229 101.0317 13.15562106 34599
ONEWEB-0247             
1 48777U 21045L   22020.45797587  .00000381  00000+0  97924-3 0  9998
2 48777  87.9045 219.0569 0000635  55.0982 305.0208 13.15548968 34020
ONEWEB-0245             
1 48778U 21045M   22020.58334491 -.00015666  00000+0 -41711-1 0  9999
2 48778  87.9094 218.9409 0001336 110.5798 143.0077 13.15561995 34015
ONEWEB-0229             
1 48779U 21045N   22020.58334491 -.00016276  00000+0 -43335-1 0  9992
2 48779  87.9092 218.9391 0000931  96.5601 187.0118 13.15562735 34039
ONEWEB-0228             
1 48780U 21045P   22020.58334491 -.00010132  00000+0 -26974-1 0  9999
2 48780  87.9065 218.9890 0001249  84.4073 129.0777 13.15559025 33952
ONEWEB-0232             
1 48781U 21045Q   22020.58334491 -.00015281  00000+0 -40689-1 0  9999
2 48781  87.9116 219.1077 0001190 110.9844 132.6313 13.15556615 34270
ONEWEB-0231             
1 48782U 21045R   22020.58334491 -.00017488  00000+0 -46565-1 0  9990
2 48782  87.9110 219.0700 0000900  73.1270 270.5284 13.15567095 33988
ONEWEB-0234             
1 48783U 21045S   22020.58334491 -.00015141  00000+0 -40311-1 0  9998
2 48783  87.9038 219.0736 0001495 103.1768 120.3768 13.15562202 34102
ONEWEB-0238             
1 48784U 21045T   22020.58334491 -.00015611  00000+0 -41564-1 0  9992
2 48784  87.9068 219.0385 0001474 104.2649  64.2242 13.15561738 34008
ONEWEB-0240             
1 48785U 21045U   22020.58334491 -.00017560  00000+0 -46760-1 0  9991
2 48785  87.9030 219.0745 0000862 127.0922 296.4472 13.15559084 34033
ONEWEB-0246             
1 48786U 21045V   22020.58334491 -.00007748  00000+0 -20631-1 0  9998
2 48786  87.9022 219.0911 0001026  79.6169   4.0030 13.15558023 33896
ONEWEB-0210             
1 48787U 21045W   22020.58334491 -.00015113  00000+0 -40237-1 0  9998
2 48787  87.9032 219.0815 0001305  47.6346 155.9880 13.15562519 33943
ONEWEB-0214             
1 48788U 21045X   22020.58334491 -.00015790  00000+0 -42043-1 0  9997
2 48788  87.9038 219.0900 0001610  49.0126 104.5196 13.15559728 33900
ONEWEB-0221             
1 48789U 21045Y   22020.58334491 -.00016419  00000+0 -43722-1 0  9992
2 48789  87.9022 219.1035 0001132  88.7376  34.7909 13.15556472 34012
ONEWEB-0213             
1 48790U 21045Z   22020.58334491 -.00015480  00000+0 -41217-1 0  9998
2 48790  87.9092 218.9815 0000955  78.1575 105.4223 13.15557088 34075
ONEWEB-0212             
1 48791U 21045AA  22020.58334491 -.00015950  00000+0 -42466-1 0  9998
2 48791  87.9096 219.0161 0001782  95.4069 178.1484 13.15566402 34060
ONEWEB-0227             
1 48792U 21045AB  22019.91667824  .00040702  00000+0  10763+0 0  9997
2 48792  87.9117 219.1079 0001141  99.8362 288.3037 13.15532344  3306
ONEWEB-0226             
1 48793U 21045AC  22020.58334491 -.00017422  00000+0 -46388-1 0  9993
2 48793  87.9092 218.9685 0001095  52.7116 280.8178 13.15567165 33969
ONEWEB-0224             
1 48794U 21045AD  22020.58334491 -.00013841  00000+0 -36850-1 0  9998
2 48794  87.9017 219.0842 0001739 109.7398  23.7399 13.15559580 33897
ONEWEB-0233             
1 48795U 21045AE  22020.58334491 -.00017899  00000+0 -47664-1 0  9991
2 48795  87.9092 218.9592 0001211 106.5014 302.1447 13.15559650 33904
ONEWEB-0190             
1 48796U 21045AF  22020.58334491 -.00015678  00000+0 -41743-1 0  9997
2 48796  87.9093 218.9422 0000397  16.1240 157.4218 13.15561167 33980
ONEWEB-0236             
1 48797U 21045AG  22020.58334491 -.00017003  00000+0 -45277-1 0  9998
2 48797  87.9026 219.1191 0001311  94.4373 359.0911 13.15557605 33876
ONEWEB-0248             
1 48798U 21045AH  22020.58334491 -.00017804  00000+0 -47411-1 0  9990
2 48798  87.9033 219.0897 0000609 148.9342 244.6435 13.15560687 34030
ONEWEB-0225             
1 48799U 21045AJ  22020.58334491 -.00016390  00000+0 -43640-1 0  9990
2 48799  87.9082 219.0418 0000569  95.8639 197.6453 13.15563449 34056
ONEWEB-0215             
1 48800U 21045AK  22020.58334491 -.00017384  00000+0 -46291-1 0  9992
2 48800  87.9025 219.0929 0000353 141.1406 292.4425 13.15562184 33913
ONEWEB-0216             
1 48801U 21045AL  22020.58334491 -.00017865  00000+0 -47574-1 0  9992
2 48801  87.9076 219.0531 0001550  75.3683 308.2712 13.15559985 33925
ONEWEB-0239             
1 48802U 21045AM  22020.58334491 -.00017775  00000+0 -47329-1 0  9991
2 48802  87.9080 219.0515 0000336 120.6505 242.9751 13.15566611 33988
TIANZHOU-2              
1 48803U 21046A   22019.37911498  .00016848  00000+0  19899-3 0  9997
2 48803  41.4703  45.5981 0002501 104.9664 278.0050 15.60926468 41503
FENGYUN 4B              
1 48808U 21047A   22019.98279823 -.00000346  00000+0  00000+0 0  9996
2 48808   0.0427  59.8488 0005472  46.1536 130.6693  1.00278581  2437
SXM-8                   
1 48838U 21049A   22019.86932728 -.00000193  00000+0  00000+0 0  9998
2 48838   0.0145  86.2364 0002087 241.8051  18.9074  1.00270437  2476
2021-050A               
1 48840U 21050A   22020.46676221 -.00000073  00000+0  00000+0 0  9991
2 48840  97.4941  95.3756 0011478 204.8038 211.6685 15.24932438 34019
2021-050B               
1 48841U 21050B   22020.46642214 -.00000073  00000+0  00000+0 0  9997
2 48841  97.4918  95.3400 0011112 209.3381 161.1547 15.24611971 34007
2021-050C               
1 48842U 21050C   22020.46548760 -.00000073  00000+0  00000+0 0  9999
2 48842  97.4941  95.3665 0011746 206.9111 209.8014 15.24873278 34003
2021-050D               
1 48843U 21050D   22020.48530485 -.00000073  00000+0  00000+0 0  9997
2 48843  97.4900  95.1833 0011522 198.0976 219.0919 15.23977050 34016
ODYSSEY                 
1 48844U 21051A   22020.33037468  .00020052  00000+0  33981-3 0  9992
2 48844  97.4820 306.2131 0032031 203.7044 156.2734 15.50972737 34185
RAMSAT                  
1 48850U 98067SL  22019.98522540  .00018204  00000+0  27174-3 0  9992
2 48850  51.6423 345.8622 0002914 206.5186 153.5657 15.55106992 34138
SOAR                    
1 48851U 98067SM  22020.08628412  .00140781  00000+0  10924-2 0  9991
2 48851  51.6354 336.7294 0003926 149.5485 210.5741 15.70843215 34308
NAVSTAR 81 (USA 319)    
1 48859U 21054A   22019.87377687 -.00000050  00000+0  00000+0 0  9997
2 48859  55.1086  37.0349 0003207 208.0866 351.1076  2.00553715  4475
YAOGAN 30 AA            
1 48860U 21055A   22020.44638782  .00000880  00000+0  91969-4 0  9990
2 48860  34.9959 128.5864 0005394 183.5168 176.5499 14.90118045 32238
YAOGAN 30 AB            
1 48861U 21055B   22020.49030412  .00000860  00000+0  89948-4 0  9994
2 48861  34.9952 127.9948 0005451 205.0105 155.0336 14.90122523 32219
YAOGAN 30 AC            
1 48863U 21055D   22020.45585286  .00000911  00000+0  95146-4 0  9990
2 48863  34.9972 127.7379 0005898 286.5879  73.4197 14.90110736 31935
TIANQI-14               
1 48864U 21055E   22020.40322086  .00001015  00000+0  10192-3 0  9996
2 48864  35.0066 125.5651 0007915 335.6425  24.3926 14.91592383 31989
